{
  "type": "FeatureCollection",
  "features": [
    {
      "type": "Feature",
      "properties": {
        "norad_id": 33412,
        "name": "COSMO-SKYMED 3",
        "group": "resource",
        "lat": 80.7855470256033,
        "lon": 147.16608802713677,
        "alt_km": 536.8554483665457,
        "timestamp": "2025-12-20T20:38:44.100797+00:00",
        "meta_object_name": "COSMO-SKYMED 3",
        "meta_object_id": "2008-054A",
        "meta_epoch": "2025-12-20T13:53:15.063648",
        "meta_mean_motion": 15.05420019,
        "meta_eccentricity": 0.00169549,
        "meta_inclination": 97.8466,
        "meta_ra_of_asc_node": 205.1026,
        "meta_arg_of_pericenter": 145.8376,
        "meta_mean_anomaly": 214.3945,
        "meta_ephemeris_type": 0,
        "meta_classification_type": "U",
        "meta_norad_cat_id": 33412,
        "meta_element_set_no": 999,
        "meta_rev_at_epoch": 93005,
        "meta_bstar": 6.7662315e-05,
        "meta_mean_motion_dot": 9.08e-06,
        "meta_mean_motion_ddot": 0,
        "tle_line1": "1 33412U 08054A   25354.57864657  .00000908  00000+0  67662-4 0  9994",
        "tle_line2": "2 33412  97.8466 205.1026 0016954 145.8376 214.3945 15.05420019930052"
      },
      "geometry": {
        "type": "Point",
        "coordinates": [
          147.16608802713677,
          80.7855470256033
        ]
      }
    },
    {
      "type": "Feature",
      "properties": {
        "norad_id": 33446,
        "name": "YAOGAN-4",
        "group": "resource",
        "lat": 55.13333215662571,
        "lon": 116.40420460527957,
        "alt_km": 624.6406750222031,
        "timestamp": "2025-12-20T20:38:44.100808+00:00",
        "meta_object_name": "YAOGAN-4",
        "meta_object_id": "2008-061A",
        "meta_epoch": "2025-12-20T07:07:49.061568",
        "meta_mean_motion": 14.82702731,
        "meta_eccentricity": 0.00131175,
        "meta_inclination": 97.9192,
        "meta_ra_of_asc_node": 284.3224,
        "meta_arg_of_pericenter": 296.7402,
        "meta_mean_anomaly": 63.2469,
        "meta_ephemeris_type": 0,
        "meta_classification_type": "U",
        "meta_norad_cat_id": 33446,
        "meta_element_set_no": 999,
        "meta_rev_at_epoch": 91915,
        "meta_bstar": 0.000123707,
        "meta_mean_motion_dot": 9.46e-06,
        "meta_mean_motion_ddot": 0,
        "tle_line1": "1 33446U 08061A   25354.29709562  .00000946  00000+0  12371-3 0  9999",
        "tle_line2": "2 33446  97.9192 284.3224 0013117 296.7402  63.2469 14.82702731919157"
      },
      "geometry": {
        "type": "Point",
        "coordinates": [
          116.40420460527957,
          55.13333215662571
        ]
      }
    },
    {
      "type": "Feature",
      "properties": {
        "norad_id": 33492,
        "name": "GOSAT (IBUKI)",
        "group": "resource",
        "lat": 81.05405362395229,
        "lon": -12.212696760741162,
        "alt_km": 660.8020358384456,
        "timestamp": "2025-12-20T20:38:44.100818+00:00",
        "meta_object_name": "GOSAT (IBUKI)",
        "meta_object_id": "2009-002A",
        "meta_epoch": "2025-12-20T13:40:26.913216",
        "meta_mean_motion": 14.67539172,
        "meta_eccentricity": 9.948e-05,
        "meta_inclination": 98.0771,
        "meta_ra_of_asc_node": 103.0642,
        "meta_arg_of_pericenter": 101.5072,
        "meta_mean_anomaly": 258.6245,
        "meta_ephemeris_type": 0,
        "meta_classification_type": "U",
        "meta_norad_cat_id": 33492,
        "meta_element_set_no": 999,
        "meta_rev_at_epoch": 90526,
        "meta_bstar": 0.00010874926,
        "meta_mean_motion_dot": 5.69e-06,
        "meta_mean_motion_ddot": 0,
        "tle_line1": "1 33492U 09002A   25354.56975594  .00000569  00000+0  10875-3 0  9994",
        "tle_line2": "2 33492  98.0771 103.0642 0000994 101.5072 258.6245 14.67539172905268"
      },
      "geometry": {
        "type": "Point",
        "coordinates": [
          -12.212696760741162,
          81.05405362395229
        ]
      }
    },
    {
      "type": "Feature",
      "properties": {
        "norad_id": 35681,
        "name": "DEIMOS-1",
        "group": "resource",
        "lat": 27.497580896372327,
        "lon": 151.03913468338013,
        "alt_km": 642.7265961540734,
        "timestamp": "2025-12-20T20:38:44.100829+00:00",
        "meta_object_name": "DEIMOS-1",
        "meta_object_id": "2009-041A",
        "meta_epoch": "2025-12-20T15:38:08.391264",
        "meta_mean_motion": 14.74964093,
        "meta_eccentricity": 0.00026015,
        "meta_inclination": 97.7143,
        "meta_ra_of_asc_node": 154.8861,
        "meta_arg_of_pericenter": 66.718,
        "meta_mean_anomaly": 293.4303,
        "meta_ephemeris_type": 0,
        "meta_classification_type": "U",
        "meta_norad_cat_id": 35681,
        "meta_element_set_no": 999,
        "meta_rev_at_epoch": 88056,
        "meta_bstar": 8.6734553e-05,
        "meta_mean_motion_dot": 5.36e-06,
        "meta_mean_motion_ddot": 0,
        "tle_line1": "1 35681U 09041A   25354.65148601  .00000536  00000+0  86735-4 0  9993",
        "tle_line2": "2 35681  97.7143 154.8861 0002601  66.7180 293.4303 14.74964093880564"
      },
      "geometry": {
        "type": "Point",
        "coordinates": [
          151.03913468338013,
          27.497580896372327
        ]
      }
    },
    {
      "type": "Feature",
      "properties": {
        "norad_id": 35682,
        "name": "DUBAISAT-1",
        "group": "resource",
        "lat": -46.536029906649624,
        "lon": 133.93200429997813,
        "alt_km": 647.3578472656218,
        "timestamp": "2025-12-20T20:38:44.100840+00:00",
        "meta_object_name": "DUBAISAT-1",
        "meta_object_id": "2009-041B",
        "meta_epoch": "2025-12-20T06:12:07.307424",
        "meta_mean_motion": 14.74623137,
        "meta_eccentricity": 0.0009265,
        "meta_inclination": 97.9798,
        "meta_ra_of_asc_node": 124.8278,
        "meta_arg_of_pericenter": 287.5013,
        "meta_mean_anomaly": 72.5183,
        "meta_ephemeris_type": 0,
        "meta_classification_type": "U",
        "meta_norad_cat_id": 35682,
        "meta_element_set_no": 999,
        "meta_rev_at_epoch": 87872,
        "meta_bstar": 0.00014745,
        "meta_mean_motion_dot": 9.33e-06,
        "meta_mean_motion_ddot": 0,
        "tle_line1": "1 35682U 09041B   25354.25841791  .00000933  00000+0  14745-3 0  9992",
        "tle_line2": "2 35682  97.9798 124.8278 0009265 287.5013  72.5183 14.74623137878721"
      },
      "geometry": {
        "type": "Point",
        "coordinates": [
          133.93200429997813,
          -46.536029906649624
        ]
      }
    },
    {
      "type": "Feature",
      "properties": {
        "norad_id": 35931,
        "name": "OCEANSAT-2",
        "group": "resource",
        "lat": 75.89813512325597,
        "lon": -150.2274802845193,
        "alt_km": 885.414655564532,
        "timestamp": "2025-12-20T20:38:44.100851+00:00",
        "meta_object_name": "OCEANSAT-2",
        "meta_object_id": "2009-051A",
        "meta_epoch": "2025-12-20T13:18:03.305088",
        "meta_mean_motion": 13.99623078,
        "meta_eccentricity": 0.00160154,
        "meta_inclination": 98.2217,
        "meta_ra_of_asc_node": 354.3619,
        "meta_arg_of_pericenter": 24.5792,
        "meta_mean_anomaly": 335.6135,
        "meta_ephemeris_type": 0,
        "meta_classification_type": "U",
        "meta_norad_cat_id": 35931,
        "meta_element_set_no": 999,
        "meta_rev_at_epoch": 85434,
        "meta_bstar": -6.6325183e-05,
        "meta_mean_motion_dot": -1.34e-06,
        "meta_mean_motion_ddot": 0,
        "tle_line1": "1 35931U 09051A   25354.55420492 -.00000134  00000+0 -66325-4 0  9991",
        "tle_line2": "2 35931  98.2217 354.3619 0016015  24.5792 335.6135 13.99623078854343"
      },
      "geometry": {
        "type": "Point",
        "coordinates": [
          -150.2274802845193,
          75.89813512325597
        ]
      }
    },
    {
      "type": "Feature",
      "properties": {
        "norad_id": 35946,
        "name": "WORLDVIEW-2 (WV-2)",
        "group": "resource",
        "lat": -72.91986283458304,
        "lon": -143.2072818048567,
        "alt_km": 776.5047736238785,
        "timestamp": "2025-12-20T20:38:44.100861+00:00",
        "meta_object_name": "WORLDVIEW-2 (WV-2)",
        "meta_object_id": "2009-055A",
        "meta_epoch": "2025-12-20T14:27:06.938496",
        "meta_mean_motion": 14.37727135,
        "meta_eccentricity": 0.00049166,
        "meta_inclination": 98.4779,
        "meta_ra_of_asc_node": 65.5788,
        "meta_arg_of_pericenter": 51.4458,
        "meta_mean_anomaly": 308.7169,
        "meta_ephemeris_type": 0,
        "meta_classification_type": "U",
        "meta_norad_cat_id": 35946,
        "meta_element_set_no": 999,
        "meta_rev_at_epoch": 84998,
        "meta_bstar": 5.1019255e-05,
        "meta_mean_motion_dot": 1.1e-06,
        "meta_mean_motion_ddot": 0,
        "tle_line1": "1 35946U 09055A   25354.60216364  .00000110  00000+0  51019-4 0  9994",
        "tle_line2": "2 35946  98.4779  65.5788 0004916  51.4458 308.7169 14.37727135849981"
      },
      "geometry": {
        "type": "Point",
        "coordinates": [
          -143.2072818048567,
          -72.91986283458304
        ]
      }
    }
  ]
}